[{"OBJECT_NAME":"SL-14 R/B","OBJECT_ID":"1986-006B","EPOCH":"2026-04-03T18:10:50.672352","MEAN_MOTION":14.86861429,"ECCENTRICITY":0.0076263,"INCLINATION":82.5261,"RA_OF_ASC_NODE":236.1399,"ARG_OF_PERICENTER":188.5155,"MEAN_ANOMALY":171.4775,"EPHEMERIS_TYPE":0,"CLASSIFICATION_TYPE":"U","NORAD_CAT_ID":16496,"ELEMENT_SET_NO":999,"REV_AT_EPOCH":15293,"BSTAR":0.00015997,"MEAN_MOTION_DOT":1.531e-5,"MEAN_MOTION_DDOT":0},{"OBJECT_NAME":"COSMOS 1743","OBJECT_ID":"1986-034A","EPOCH":"2026-04-03T20:35:14.045280","MEAN_MOTION":15.60862346,"ECCENTRICITY":0.0005554,"INCLINATION":82.5323,"RA_OF_ASC_NODE":47.3739,"ARG_OF_PERICENTER":156.3545,"MEAN_ANOMALY":203.7968,"EPHEMERIS_TYPE":0,"CLASSIFICATION_TYPE":"U","NORAD_CAT_ID":16719,"ELEMENT_SET_NO":999,"REV_AT_EPOCH":18417,"BSTAR":0.00091391,"MEAN_MOTION_DOT":0.00076912,"MEAN_MOTION_DDOT":0},{"OBJECT_NAME":"SL-14 R/B","OBJECT_ID":"1986-046B","EPOCH":"2026-04-03T20:43:01.938432","MEAN_MOTION":14.85617945,"ECCENTRICITY":0.0024033,"INCLINATION":82.4815,"RA_OF_ASC_NODE":56.3912,"ARG_OF_PERICENTER":141.7301,"MEAN_ANOMALY":218.5627,"EPHEMERIS_TYPE":0,"CLASSIFICATION_TYPE":"U","NORAD_CAT_ID":16792,"ELEMENT_SET_NO":999,"REV_AT_EPOCH":13014,"BSTAR":9.3538e-5,"MEAN_MOTION_DOT":8.38e-6,"MEAN_MOTION_DDOT":0},{"OBJECT_NAME":"SL-14 R/B","OBJECT_ID":"1986-055B","EPOCH":"2026-04-03T12:46:38.954784","MEAN_MOTION":14.85667098,"ECCENTRICITY":0.00174077,"INCLINATION":82.5169,"RA_OF_ASC_NODE":103.3167,"ARG_OF_PERICENTER":248.265,"MEAN_ANOMALY":233.3338,"EPHEMERIS_TYPE":0,"CLASSIFICATION_TYPE":"U","NORAD_CAT_ID":16882,"ELEMENT_SET_NO":999,"REV_AT_EPOCH":12305,"BSTAR":8.6304442e-5,"MEAN_MOTION_DOT":7.73e-6,"MEAN_MOTION_DDOT":0},{"OBJECT_NAME":"AJISAI (EGS)","OBJECT_ID":"1986-061A","EPOCH":"2026-04-03T20:31:59.628864","MEAN_MOTION":12.44515643,"ECCENTRICITY":0.0011356,"INCLINATION":50.0123,"RA_OF_ASC_NODE":15.9628,"ARG_OF_PERICENTER":351.7821,"MEAN_ANOMALY":95.4236,"EPHEMERIS_TYPE":0,"CLASSIFICATION_TYPE":"U","NORAD_CAT_ID":16908,"ELEMENT_SET_NO":999,"REV_AT_EPOCH":47113,"BSTAR":-4.4949e-5,"MEAN_MOTION_DOT":-1.04e-6,"MEAN_MOTION_DDOT":0},{"OBJECT_NAME":"SL-14 R/B","OBJECT_ID":"1987-024B","EPOCH":"2026-04-03T21:17:55.241952","MEAN_MOTION":14.86159174,"ECCENTRICITY":0.0018361,"INCLINATION":82.5263,"RA_OF_ASC_NODE":69.0739,"ARG_OF_PERICENTER":172.345,"MEAN_ANOMALY":187.805,"EPHEMERIS_TYPE":0,"CLASSIFICATION_TYPE":"U","NORAD_CAT_ID":17567,"ELEMENT_SET_NO":999,"REV_AT_EPOCH":9187,"BSTAR":9.0427e-5,"MEAN_MOTION_DOT":8.2e-6,"MEAN_MOTION_DDOT":0},{"OBJECT_NAME":"COSMOS 1833","OBJECT_ID":"1987-027A","EPOCH":"2026-04-03T20:22:42.405888","MEAN_MOTION":14.13044513,"ECCENTRICITY":0.0022997,"INCLINATION":70.9164,"RA_OF_ASC_NODE":273.1352,"ARG_OF_PERICENTER":176.9964,"MEAN_ANOMALY":183.13,"EPHEMERIS_TYPE":0,"CLASSIFICATION_TYPE":"U","NORAD_CAT_ID":17589,"ELEMENT_SET_NO":999,"REV_AT_EPOCH":1387,"BSTAR":-0.0001394,"MEAN_MOTION_DOT":-3.09e-6,"MEAN_MOTION_DDOT":0},{"OBJECT_NAME":"SL-16 R/B","OBJECT_ID":"1987-027B","EPOCH":"2026-04-03T19:41:18.110400","MEAN_MOTION":14.17168275,"ECCENTRICITY":0.0002871,"INCLINATION":71.0024,"RA_OF_ASC_NODE":223.5345,"ARG_OF_PERICENTER":79.1178,"MEAN_ANOMALY":281.0268,"EPHEMERIS_TYPE":0,"CLASSIFICATION_TYPE":"U","NORAD_CAT_ID":17590,"ELEMENT_SET_NO":999,"REV_AT_EPOCH":1890,"BSTAR":0.00016848,"MEAN_MOTION_DOT":2.92e-6,"MEAN_MOTION_DDOT":0},{"OBJECT_NAME":"SL-14 R/B","OBJECT_ID":"1987-038B","EPOCH":"2026-04-03T13:24:16.255872","MEAN_MOTION":14.85394765,"ECCENTRICITY":0.0020754,"INCLINATION":82.4977,"RA_OF_ASC_NODE":273.3726,"ARG_OF_PERICENTER":83.0831,"MEAN_ANOMALY":277.2745,"EPHEMERIS_TYPE":0,"CLASSIFICATION_TYPE":"U","NORAD_CAT_ID":17912,"ELEMENT_SET_NO":999,"REV_AT_EPOCH":8292,"BSTAR":9.3349e-5,"MEAN_MOTION_DOT":8.31e-6,"MEAN_MOTION_DDOT":0},{"OBJECT_NAME":"COSMOS 1844","OBJECT_ID":"1987-041A","EPOCH":"2026-04-03T20:34:43.685184","MEAN_MOTION":14.14561764,"ECCENTRICITY":0.0031474,"INCLINATION":70.9016,"RA_OF_ASC_NODE":341.0927,"ARG_OF_PERICENTER":340.9396,"MEAN_ANOMALY":19.0545,"EPHEMERIS_TYPE":0,"CLASSIFICATION_TYPE":"U","NORAD_CAT_ID":17973,"ELEMENT_SET_NO":999,"REV_AT_EPOCH":714,"BSTAR":0.0002166,"MEAN_MOTION_DOT":3.69e-6,"MEAN_MOTION_DDOT":0},{"OBJECT_NAME":"SL-14 R/B","OBJECT_ID":"1987-055B","EPOCH":"2026-04-03T17:35:35.079360","MEAN_MOTION":14.85655666,"ECCENTRICITY":0.001922,"INCLINATION":82.4996,"RA_OF_ASC_NODE":325.4307,"ARG_OF_PERICENTER":292.6522,"MEAN_ANOMALY":67.2661,"EPHEMERIS_TYPE":0,"CLASSIFICATION_TYPE":"U","NORAD_CAT_ID":18153,"ELEMENT_SET_NO":999,"REV_AT_EPOCH":7365,"BSTAR":7.8297e-5,"MEAN_MOTION_DOT":7.04e-6,"MEAN_MOTION_DDOT":0},{"OBJECT_NAME":"COSMOS 1867","OBJECT_ID":"1987-060A","EPOCH":"2026-04-03T17:32:48.556320","MEAN_MOTION":14.31507283,"ECCENTRICITY":0.0014935,"INCLINATION":65.0101,"RA_OF_ASC_NODE":236.5733,"ARG_OF_PERICENTER":280.0607,"MEAN_ANOMALY":79.8792,"EPHEMERIS_TYPE":0,"CLASSIFICATION_TYPE":"U","NORAD_CAT_ID":18187,"ELEMENT_SET_NO":999,"REV_AT_EPOCH":2352,"BSTAR":4.4789e-5,"MEAN_MOTION_DOT":1.9e-7,"MEAN_MOTION_DDOT":0},{"OBJECT_NAME":"SL-14 R/B","OBJECT_ID":"1988-001B","EPOCH":"2026-04-03T14:17:25.610784","MEAN_MOTION":14.85556698,"ECCENTRICITY":0.0018808,"INCLINATION":82.5157,"RA_OF_ASC_NODE":171.9431,"ARG_OF_PERICENTER":151.9375,"MEAN_ANOMALY":208.2859,"EPHEMERIS_TYPE":0,"CLASSIFICATION_TYPE":"U","NORAD_CAT_ID":18749,"ELEMENT_SET_NO":999,"REV_AT_EPOCH":4572,"BSTAR":8.5536e-5,"MEAN_MOTION_DOT":7.66e-6,"MEAN_MOTION_DDOT":0},{"OBJECT_NAME":"COSMOS 1933","OBJECT_ID":"1988-020A","EPOCH":"2026-04-03T18:30:48.875328","MEAN_MOTION":15.18241542,"ECCENTRICITY":0.0005489,"INCLINATION":82.5138,"RA_OF_ASC_NODE":226.0899,"ARG_OF_PERICENTER":109.4557,"MEAN_ANOMALY":250.7271,"EPHEMERIS_TYPE":0,"CLASSIFICATION_TYPE":"U","NORAD_CAT_ID":18958,"ELEMENT_SET_NO":999,"REV_AT_EPOCH":5403,"BSTAR":0.00042051,"MEAN_MOTION_DOT":8.641e-5,"MEAN_MOTION_DDOT":0},{"OBJECT_NAME":"SL-3 R/B","OBJECT_ID":"1988-032B","EPOCH":"2026-04-03T21:06:21.024864","MEAN_MOTION":15.20206443,"ECCENTRICITY":0.0026968,"INCLINATION":97.5223,"RA_OF_ASC_NODE":77.0517,"ARG_OF_PERICENTER":142.9078,"MEAN_ANOMALY":217.4027,"EPHEMERIS_TYPE":0,"CLASSIFICATION_TYPE":"U","NORAD_CAT_ID":19046,"ELEMENT_SET_NO":999,"REV_AT_EPOCH":5593,"BSTAR":0.00043003,"MEAN_MOTION_DOT":9.342e-5,"MEAN_MOTION_DDOT":0},{"OBJECT_NAME":"SL-16 R/B","OBJECT_ID":"1988-039B","EPOCH":"2026-04-03T18:47:42.330048","MEAN_MOTION":14.19620751,"ECCENTRICITY":0.0023819,"INCLINATION":71.0174,"RA_OF_ASC_NODE":15.4872,"ARG_OF_PERICENTER":298.5011,"MEAN_ANOMALY":61.3715,"EPHEMERIS_TYPE":0,"CLASSIFICATION_TYPE":"U","NORAD_CAT_ID":19120,"ELEMENT_SET_NO":999,"REV_AT_EPOCH":96194,"BSTAR":-1.1916e-6,"MEAN_MOTION_DOT":-5.1e-7,"MEAN_MOTION_DDOT":0},{"OBJECT_NAME":"COSMOS 1953","OBJECT_ID":"1988-050A","EPOCH":"2026-04-03T13:32:47.184864","MEAN_MOTION":15.289274,"ECCENTRICITY":0.001193,"INCLINATION":82.5063,"RA_OF_ASC_NODE":133.2213,"ARG_OF_PERICENTER":44.8608,"MEAN_ANOMALY":315.3594,"EPHEMERIS_TYPE":0,"CLASSIFICATION_TYPE":"U","NORAD_CAT_ID":19210,"ELEMENT_SET_NO":999,"REV_AT_EPOCH":4158,"BSTAR":0.0004238,"MEAN_MOTION_DOT":0.00011967,"MEAN_MOTION_DDOT":0}]
