SL-14 R/B               
1 16496U 86006B   26093.75753093  .00001531  00000+0  15997-3 0  9998
2 16496  82.5261 236.1399 0076263 188.5155 171.4775 14.86861429152933
COSMOS 1743             
1 16719U 86034A   26093.85780145  .00076912  00000+0  91391-3 0  9993
2 16719  82.5323  47.3739 0005554 156.3545 203.7968 15.60862346184177
SL-14 R/B               
1 16792U 86046B   26093.86321688  .00000838  00000+0  93538-4 0  9991
2 16792  82.4815  56.3912 0024033 141.7301 218.5627 14.85617945130140
SL-14 R/B               
1 16882U 86055B   26093.53239531  .00000773  00000+0  86304-4 0  9991
2 16882  82.5169 103.3167 0017407 248.2650 233.3338 14.85667098123055
AJISAI (EGS)            
1 16908U 86061A   26093.85555126 -.00000104  00000+0 -44949-4 0  9992
2 16908  50.0123  15.9628 0011356 351.7821  95.4236 12.44515643471131
SL-14 R/B               
1 17567U 87024B   26093.88744493  .00000820  00000+0  90427-4 0  9999
2 17567  82.5263  69.0739 0018361 172.3450 187.8050 14.86159174 91879
COSMOS 1833             
1 17589U 87027A   26093.84910192 -.00000309  00000+0 -13940-3 0  9991
2 17589  70.9164 273.1352 0022997 176.9964 183.1300 14.13044513 13874
SL-16 R/B               
1 17590U 87027B   26093.82034850  .00000292  00000+0  16848-3 0  9998
2 17590  71.0024 223.5345 0002871  79.1178 281.0268 14.17168275 18900
SL-14 R/B               
1 17912U 87038B   26093.55852148  .00000831  00000+0  93349-4 0  9997
2 17912  82.4977 273.3726 0020754  83.0831 277.2745 14.85394765 82927
COSMOS 1844             
1 17973U 87041A   26093.85745006  .00000369  00000+0  21660-3 0  9997
2 17973  70.9016 341.0927 0031474 340.9396  19.0545 14.14561764  7146
SL-14 R/B               
1 18153U 87055B   26093.73304490  .00000704  00000+0  78297-4 0  9990
2 18153  82.4996 325.4307 0019220 292.6522  67.2661 14.85655666 73655
COSMOS 1867             
1 18187U 87060A   26093.73111755  .00000019  00000+0  44789-4 0  9991
2 18187  65.0101 236.5733 0014935 280.0607  79.8792 14.31507283 23522
SL-14 R/B               
1 18749U 88001B   26093.59543531  .00000766  00000+0  85536-4 0  9990
2 18749  82.5157 171.9431 0018808 151.9375 208.2859 14.85556698 45720
COSMOS 1933             
1 18958U 88020A   26093.77139902  .00008641  00000+0  42051-3 0  9990
2 18958  82.5138 226.0899 0005489 109.4557 250.7271 15.18241542 54032
SL-3 R/B                
1 19046U 88032B   26093.87941001  .00009342  00000+0  43003-3 0  9991
2 19046  97.5223  77.0517 0026968 142.9078 217.4027 15.20206443 55931
SL-16 R/B               
1 19120U 88039B   26093.78312882 -.00000051  00000+0 -11916-5 0  9990
2 19120  71.0174  15.4872 0023819 298.5011  61.3715 14.19620751961949
COSMOS 1953             
1 19210U 88050A   26093.56443501  .00011967  00000+0  42380-3 0  9995
2 19210  82.5063 133.2213 0011930  44.8608 315.3594 15.28927400 41584
